STARLINK-35583          
1 66611U 25270Z   25337.25003472 -.01749214  00000+0 -11584-1 0  9998
2 66611  42.9990 249.1402 0001497 271.2927 351.3807 15.77506992  2985
STARLINK-36039          
1 66612U 25270AA  25337.25003472 -.01647754  00000+0 -10877-1 0  9999
2 66612  42.9991 249.1351 0001494 269.3029 355.4324 15.77405293  2877
STARLINK-36037          
1 66613U 25270AB  25337.25003472 -.01703233  00000+0 -11295-1 0  9990
2 66613  42.9989 249.1299 0001581 267.4145 359.3113 15.77397354  2878
STARLINK-36040          
1 66614U 25270AC  25337.25003472 -.01735805  00000+0 -11543-1 0  9997
2 66614  42.9988 249.1197 0001511 264.6779   5.9392 15.77392699  2713
STARLINK-35988          
1 66615U 25270AD  25337.25003472 -.01569643  00000+0 -10562-1 0  9993
2 66615  42.9989 249.1250 0001305 267.0688   1.6570 15.77326745  2712
STARLINK-35391          
1 66616U 25270AE  25337.25003472 -.01745783  00000+0 -11629-1 0  9990
2 66616  42.9989 249.1152 0001366 266.2499   6.3434 15.77373676  2987
SHENZHOU-22             
1 66645U 25272A   25337.36113141  .00026743  00000+0  34172-3 0  9996
2 66645  41.4677  73.6192 0010070 319.5464  40.4624 15.58580261262579
CZ-2F R/B               
1 66646U 25272B   25330.47076975  .00449059  75676-5  29319-3 0  9998
2 66646  41.4431 114.9009 0121079 133.7676 227.3272 16.01945612   217
COSMOS 2597 (RODNIK-S *)
1 66647U 25273A   25337.37068065 -.00000005  00000+0 -10945-3 0  9991
2 66647  82.4982 292.2676 0008129 311.2225  48.8152 12.41951088   977
COSMOS 2598 (RODNIK-S *)
1 66648U 25273B   25337.36880207 -.00000004  00000+0 -10182-3 0  9993
2 66648  82.5022 292.2747 0008225 299.7195  60.3065 12.42252999   974
COSMOS 2599 (RODNIK-S *)
1 66649U 25273C   25337.37241846 -.00000005  00000+0 -10657-3 0  9993
2 66649  82.5023 292.2775 0008355 321.5323  38.5160 12.41671843   973
2025-274A               
1 66650U 25274A   25337.29388186  .00002972  00000+0  30134-3 0  9991
2 66650  97.7383 264.6558 0010425 287.9401  72.0681 14.91607548   998
