CCSDS_OMM_VERS = 2.0
CREATION_DATE  = 
ORIGINATOR     = 

OBJECT_NAME    = STARLINK-35583
OBJECT_ID      = 2025-270Z
CENTER_NAME    = EARTH
REF_FRAME      = TEME
TIME_SYSTEM    = UTC
MEAN_ELEMENT_THEORY = SGP/SGP4

EPOCH          = 2025-12-03T06:00:02.999808
MEAN_MOTION    = 15.77506992
ECCENTRICITY   = .0001497
INCLINATION    = 42.9990
RA_OF_ASC_NODE = 249.1402
ARG_OF_PERICENTER = 271.2927
MEAN_ANOMALY   = 351.3807

EPHEMERIS_TYPE = 0
CLASSIFICATION_TYPE = U
NORAD_CAT_ID   = 66611
ELEMENT_SET_NO = 999
REV_AT_EPOCH   = 298
BSTAR          = -.11584013E-1
MEAN_MOTION_DOT = -.1749214E-1
MEAN_MOTION_DDOT = 0

CCSDS_OMM_VERS = 2.0
CREATION_DATE  = 
ORIGINATOR     = 

OBJECT_NAME    = STARLINK-36039
OBJECT_ID      = 2025-270AA
CENTER_NAME    = EARTH
REF_FRAME      = TEME
TIME_SYSTEM    = UTC
MEAN_ELEMENT_THEORY = SGP/SGP4

EPOCH          = 2025-12-03T06:00:02.999808
MEAN_MOTION    = 15.77405293
ECCENTRICITY   = .00014941
INCLINATION    = 42.9991
RA_OF_ASC_NODE = 249.1351
ARG_OF_PERICENTER = 269.3029
MEAN_ANOMALY   = 355.4324

EPHEMERIS_TYPE = 0
CLASSIFICATION_TYPE = U
NORAD_CAT_ID   = 66612
ELEMENT_SET_NO = 999
REV_AT_EPOCH   = 287
BSTAR          = -.10876812E-1
MEAN_MOTION_DOT = -.1647754E-1
MEAN_MOTION_DDOT = 0

CCSDS_OMM_VERS = 2.0
CREATION_DATE  = 
ORIGINATOR     = 

OBJECT_NAME    = STARLINK-36037
OBJECT_ID      = 2025-270AB
CENTER_NAME    = EARTH
REF_FRAME      = TEME
TIME_SYSTEM    = UTC
MEAN_ELEMENT_THEORY = SGP/SGP4

EPOCH          = 2025-12-03T06:00:02.999808
MEAN_MOTION    = 15.77397354
ECCENTRICITY   = .00015814
INCLINATION    = 42.9989
RA_OF_ASC_NODE = 249.1299
ARG_OF_PERICENTER = 267.4145
MEAN_ANOMALY   = 359.3113

EPHEMERIS_TYPE = 0
CLASSIFICATION_TYPE = U
NORAD_CAT_ID   = 66613
ELEMENT_SET_NO = 999
REV_AT_EPOCH   = 287
BSTAR          = -.11294668E-1
MEAN_MOTION_DOT = -.1703233E-1
MEAN_MOTION_DDOT = 0

CCSDS_OMM_VERS = 2.0
CREATION_DATE  = 
ORIGINATOR     = 

OBJECT_NAME    = STARLINK-36040
OBJECT_ID      = 2025-270AC
CENTER_NAME    = EARTH
REF_FRAME      = TEME
TIME_SYSTEM    = UTC
MEAN_ELEMENT_THEORY = SGP/SGP4

EPOCH          = 2025-12-03T06:00:02.999808
MEAN_MOTION    = 15.77392699
ECCENTRICITY   = .00015116
INCLINATION    = 42.9988
RA_OF_ASC_NODE = 249.1197
ARG_OF_PERICENTER = 264.6779
MEAN_ANOMALY   = 5.9392

EPHEMERIS_TYPE = 0
CLASSIFICATION_TYPE = U
NORAD_CAT_ID   = 66614
ELEMENT_SET_NO = 999
REV_AT_EPOCH   = 271
BSTAR          = -.11542614E-1
MEAN_MOTION_DOT = -.1735805E-1
MEAN_MOTION_DDOT = 0

CCSDS_OMM_VERS = 2.0
CREATION_DATE  = 
ORIGINATOR     = 

OBJECT_NAME    = STARLINK-35988
OBJECT_ID      = 2025-270AD
CENTER_NAME    = EARTH
REF_FRAME      = TEME
TIME_SYSTEM    = UTC
MEAN_ELEMENT_THEORY = SGP/SGP4

EPOCH          = 2025-12-03T06:00:02.999808
MEAN_MOTION    = 15.77326745
ECCENTRICITY   = .00013058
INCLINATION    = 42.9989
RA_OF_ASC_NODE = 249.1250
ARG_OF_PERICENTER = 267.0688
MEAN_ANOMALY   = 1.6570

EPHEMERIS_TYPE = 0
CLASSIFICATION_TYPE = U
NORAD_CAT_ID   = 66615
ELEMENT_SET_NO = 999
REV_AT_EPOCH   = 271
BSTAR          = -.10561858E-1
MEAN_MOTION_DOT = -.1569643E-1
MEAN_MOTION_DDOT = 0

CCSDS_OMM_VERS = 2.0
CREATION_DATE  = 
ORIGINATOR     = 

OBJECT_NAME    = STARLINK-35391
OBJECT_ID      = 2025-270AE
CENTER_NAME    = EARTH
REF_FRAME      = TEME
TIME_SYSTEM    = UTC
MEAN_ELEMENT_THEORY = SGP/SGP4

EPOCH          = 2025-12-03T06:00:02.999808
MEAN_MOTION    = 15.77373676
ECCENTRICITY   = .00013662
INCLINATION    = 42.9989
RA_OF_ASC_NODE = 249.1152
ARG_OF_PERICENTER = 266.2499
MEAN_ANOMALY   = 6.3434

EPHEMERIS_TYPE = 0
CLASSIFICATION_TYPE = U
NORAD_CAT_ID   = 66616
ELEMENT_SET_NO = 999
REV_AT_EPOCH   = 298
BSTAR          = -.11628861E-1
MEAN_MOTION_DOT = -.1745783E-1
MEAN_MOTION_DDOT = 0

CCSDS_OMM_VERS = 2.0
CREATION_DATE  = 
ORIGINATOR     = 

OBJECT_NAME    = SHENZHOU-22
OBJECT_ID      = 2025-272A
CENTER_NAME    = EARTH
REF_FRAME      = TEME
TIME_SYSTEM    = UTC
MEAN_ELEMENT_THEORY = SGP/SGP4

EPOCH          = 2025-12-03T08:40:01.753824
MEAN_MOTION    = 15.58580261
ECCENTRICITY   = .00100709
INCLINATION    = 41.4677
RA_OF_ASC_NODE = 73.6192
ARG_OF_PERICENTER = 319.5464
MEAN_ANOMALY   = 40.4624

EPHEMERIS_TYPE = 0
CLASSIFICATION_TYPE = U
NORAD_CAT_ID   = 66645
ELEMENT_SET_NO = 999
REV_AT_EPOCH   = 26257
BSTAR          = .34171532E-3
MEAN_MOTION_DOT = .26743E-3
MEAN_MOTION_DDOT = 0

CCSDS_OMM_VERS = 2.0
CREATION_DATE  = 
ORIGINATOR     = 

OBJECT_NAME    = CZ-2F R/B
OBJECT_ID      = 2025-272B
CENTER_NAME    = EARTH
REF_FRAME      = TEME
TIME_SYSTEM    = UTC
MEAN_ELEMENT_THEORY = SGP/SGP4

EPOCH          = 2025-11-26T11:17:54.506400
MEAN_MOTION    = 16.01945612
ECCENTRICITY   = .01210796
INCLINATION    = 41.4431
RA_OF_ASC_NODE = 114.9009
ARG_OF_PERICENTER = 133.7676
MEAN_ANOMALY   = 227.3272

EPHEMERIS_TYPE = 0
CLASSIFICATION_TYPE = U
NORAD_CAT_ID   = 66646
ELEMENT_SET_NO = 999
REV_AT_EPOCH   = 21
BSTAR          = .29319366E-3
MEAN_MOTION_DOT = .449059E-2
MEAN_MOTION_DDOT = .7567612E-5

CCSDS_OMM_VERS = 2.0
CREATION_DATE  = 
ORIGINATOR     = 

OBJECT_NAME    = COSMOS 2597 (RODNIK-S 22)
OBJECT_ID      = 2025-273A
CENTER_NAME    = EARTH
REF_FRAME      = TEME
TIME_SYSTEM    = UTC
MEAN_ELEMENT_THEORY = SGP/SGP4

EPOCH          = 2025-12-03T08:53:46.808160
MEAN_MOTION    = 12.41951088
ECCENTRICITY   = .00081298
INCLINATION    = 82.4982
RA_OF_ASC_NODE = 292.2676
ARG_OF_PERICENTER = 311.2225
MEAN_ANOMALY   = 48.8152

EPHEMERIS_TYPE = 0
CLASSIFICATION_TYPE = U
NORAD_CAT_ID   = 66647
ELEMENT_SET_NO = 999
REV_AT_EPOCH   = 97
BSTAR          = -.10945214E-3
MEAN_MOTION_DOT = -.5E-7
MEAN_MOTION_DDOT = 0

CCSDS_OMM_VERS = 2.0
CREATION_DATE  = 
ORIGINATOR     = 

OBJECT_NAME    = COSMOS 2598 (RODNIK-S 23)
OBJECT_ID      = 2025-273B
CENTER_NAME    = EARTH
REF_FRAME      = TEME
TIME_SYSTEM    = UTC
MEAN_ELEMENT_THEORY = SGP/SGP4

EPOCH          = 2025-12-03T08:51:04.498848
MEAN_MOTION    = 12.42252999
ECCENTRICITY   = .00082257
INCLINATION    = 82.5022
RA_OF_ASC_NODE = 292.2747
ARG_OF_PERICENTER = 299.7195
MEAN_ANOMALY   = 60.3065

EPHEMERIS_TYPE = 0
CLASSIFICATION_TYPE = U
NORAD_CAT_ID   = 66648
ELEMENT_SET_NO = 999
REV_AT_EPOCH   = 97
BSTAR          = -.10182153E-3
MEAN_MOTION_DOT = -.4E-7
MEAN_MOTION_DDOT = 0

CCSDS_OMM_VERS = 2.0
CREATION_DATE  = 
ORIGINATOR     = 

OBJECT_NAME    = COSMOS 2599 (RODNIK-S 24)
OBJECT_ID      = 2025-273C
CENTER_NAME    = EARTH
REF_FRAME      = TEME
TIME_SYSTEM    = UTC
MEAN_ELEMENT_THEORY = SGP/SGP4

EPOCH          = 2025-12-03T08:56:16.954944
MEAN_MOTION    = 12.41671843
ECCENTRICITY   = .00083554
INCLINATION    = 82.5023
RA_OF_ASC_NODE = 292.2775
ARG_OF_PERICENTER = 321.5323
MEAN_ANOMALY   = 38.5160

EPHEMERIS_TYPE = 0
CLASSIFICATION_TYPE = U
NORAD_CAT_ID   = 66649
ELEMENT_SET_NO = 999
REV_AT_EPOCH   = 97
BSTAR          = -.10657289E-3
MEAN_MOTION_DOT = -.5E-7
MEAN_MOTION_DDOT = 0

CCSDS_OMM_VERS = 2.0
CREATION_DATE  = 
ORIGINATOR     = 

OBJECT_NAME    = 2025-274A
OBJECT_ID      = 2025-274A
CENTER_NAME    = EARTH
REF_FRAME      = TEME
TIME_SYSTEM    = UTC
MEAN_ELEMENT_THEORY = SGP/SGP4

EPOCH          = 2025-12-03T07:03:11.392704
MEAN_MOTION    = 14.91607548
ECCENTRICITY   = .00104255
INCLINATION    = 97.7383
RA_OF_ASC_NODE = 264.6558
ARG_OF_PERICENTER = 287.9401
MEAN_ANOMALY   = 72.0681

EPHEMERIS_TYPE = 0
CLASSIFICATION_TYPE = U
NORAD_CAT_ID   = 66650
ELEMENT_SET_NO = 999
REV_AT_EPOCH   = 99
BSTAR          = .30133631E-3
MEAN_MOTION_DOT = .2972E-4
MEAN_MOTION_DDOT = 0

